CHUANGXIN 1-02 (CX-1-02)
1 33434U 08056B   26160.95145082  .00000073  00000+0  45246-4 0  9999
2 33434  98.6142 187.2903 0014619 156.9666 203.2174 14.30151718917589
STARS (KUKAI)           
1 33498U 09002G   26160.59260714  .00003579  00000+0  32700-3 0  9995
2 33498  98.1538 107.5912 0008258 183.5517 176.5646 14.95695618937346
KKS-1 (KISEKI)          
1 33499U 09002H   26160.70034318  .00001299  00000+0  16632-3 0  9991
2 33499  98.1192  83.0240 0006979 324.0977  35.9766 14.83104968935085
UK-DMC 2                
1 35683U 09041C   26159.88757111  .00001104  00000+0  16742-3 0  9998
2 35683  97.8828 295.0575 0001296  72.8745 287.2607 14.76019080905342
OCEANSAT-2              
1 35931U 09051A   26160.90799832  .00000057  00000+0  64781-4 0  9999
2 35931  98.2324 148.4855 0014715 258.2970 101.6546 13.99664410878310
SWISSCUBE               
1 35932U 09051B   26160.71112973  .00000922  00000+0  19187-3 0  9994
2 35932  98.4042  68.4691 0005562 230.1201 129.9511 14.62467613888060
BEESAT-1                
1 35933U 09051C   26160.51132019  .00000778  00000+0  16607-3 0  9999
2 35933  98.3972  67.9173 0003918 247.5852 112.4933 14.61708260888068
ITUPSAT1                
1 35935U 09051E   26160.70103260  .00000707  00000+0  15594-3 0  9994
2 35935  98.4055  67.3098 0006127 262.2059  97.8445 14.60429700887646
DMSP 5D-3 F18 (USA 210) 
1 35951U 09057A   26160.78660352  .00000239  00000+0  14677-3 0  9997
2 35951  98.9034 141.5719 0009856 273.1266  86.8779 14.14892588858546
PROBA-2                 
1 36037U 09059B   26160.74393205  .00000177  00000+0  51680-4 0  9998
2 36037  98.2451 344.2000 0012193 307.4414  52.5673 14.54859226880440
YAOGAN-7                
1 36110U 09069A   26160.64182954  .00000459  00000+0  70576-4 0  9995
2 36110  98.0082  46.5552 0025889  65.0609 295.3287 14.78002257888517
XIWANG-1 (HOPE-1)       
1 36122U 09072B   26160.94796742 -.00000430  00000+0 -10087-2 0  9991
2 36122 100.4022 114.8955 0006803 249.7894 110.2487 13.16437137792050
COSMOS 2463             
1 36519U 10017A   26160.75993037  .00000040  00000+0  26765-4 0  9994
2 36519  82.9607 255.1623 0036978 148.9087 322.6953 13.71665259806911
CARTOSAT-2B             
1 36795U 10035A   26160.96365086  .00000524  00000+0  78685-4 0  9995
2 36795  97.9956 211.5593 0010599 208.2494 151.8144 14.78651741858780
TISAT 1                 
1 36799U 10035E   26159.81960297  .00020138  00000+0  66607-3 0  9999
2 36799  98.0700 105.6282 0000185 170.3248 189.7995 15.31390446866423
YAOGAN-10               
1 36834U 10038A   26160.95093818  .00001028  00000+0  12589-3 0  9992
2 36834  97.8984 184.4129 0001637  90.4375  24.2539 14.85325314856139
SHIJIAN-6 04B (SJ-6 04B)
1 37180U 10051B   26160.94864439  .00000940  00000+0  82026-4 0  9992
2 37180  97.8687 166.2850 0008982 337.1979  22.8844 14.99297640854590
FENGYUN 3B              
1 37214U 10059A   26160.95647316 -.00000223  00000+0 -91687-4 0  9991
2 37214  98.9625 206.9402 0021497 204.7958 254.1975 14.14839080806408
COSMO-SKYMED 4          
1 37216U 10060A   26159.39731509  .00000510  00000+0  70656-4 0  9999
2 37216  97.8890 343.1246 0001413  83.8256 276.3118 14.82162251843269
O/OREOS (USA 219)       
1 37224U 10062C   26160.56153594  .00002187  00000+0  21219-3 0  9995
2 37224  71.9704  97.6116 0012395  79.7659 280.4909 14.93711838115500
RESOURCESAT-2           
1 37387U 11015A   26160.76921282  .00000045  00000+0  40692-4 0  9991
2 37387  98.7644 228.2620 0010130 279.4464  80.5568 14.21604818785121
YOUTHSAT                
1 37388U 11015B   26160.66883847  .00000179  00000+0  92858-4 0  9994
2 37388  98.3678 135.0621 0014694   9.2727 165.9185 14.25627245786566
APRIZESAT 6             
1 37793U 11044F   26160.76319060  .00000658  00000+0  99936-4 0  9994
2 37793  98.2371  71.1111 0044384 109.0727 318.0190 14.76904932796056
JUGNU                   
1 37839U 11058B   26160.26883713  .00000405  00000+0  72297-4 0  9997
2 37839  19.9621 356.5333 0018550 349.0526 166.6651 14.13774628757908
SRMSAT                  
1 37841U 11058D   26160.53493752  .00000362  00000+0  52397-4 0  9991
2 37841  19.9710 105.7844 0011936 119.8301  40.8059 14.11573956756730
